COSMOS 1933             
1 18958U 88020A   26052.11171354  .00003022  00000+0  14796-3 0  9993
2 18958  82.5103 267.3165 0002756 256.3809 103.7118 15.17825802 47714
SL-3 R/B                
1 19046U 88032B   26052.14078554  .00005248  00000+0  24732-3 0  9999
2 19046  97.5172  35.4564 0024273 293.7614  66.1075 15.19685864 49595
SL-16 R/B               
1 19120U 88039B   26052.13971986 -.00000131  00000+0 -39027-4 0  9991
2 19120  71.0136 103.5457 0021701 359.1456   0.9628 14.19613791956032
COSMOS 1953             
1 19210U 88050A   26051.93020359  .00008573  00000+0  31042-3 0  9994
2 19210  82.5107 175.0928 0011270 178.4487 181.6790 15.28183578 35222
SL-8 R/B                
1 19257U 88053B   26051.70272490  .00000214  00000+0  77958-4 0  9999
2 19257  74.0483 143.7761 0020904 325.7694 148.9451 14.38904708974154
COSMOS 1975             
1 19573U 88093A   26052.15571350  .00007643  00000+0  28013-3 0  9991
2 19573  82.5213 134.2764 0010770 223.0818 136.9580 15.27777299 16885
SL-14 R/B               
1 19574U 88093B   26052.01842767  .00000449  00000+0  48805-4 0  9999
2 19574  82.5280  57.6973 0022329  93.0641 286.6258 14.85634871998562
SL-16 R/B               
1 19650U 88102B   26051.81125593 -.00000120  00000+0 -36371-4 0  9996
2 19650  70.9996 187.0070 0013036  27.7113 332.4702 14.16151950924504
INTERCOSMOS 24          
1 20261U 89080A   26052.12263875  .00000578  00000+0  16960-3 0  9999
2 20261  82.6049 115.1904 1187276 331.3073  22.7346 12.59531281664710
SL-14 R/B               
1 20262U 89080C   26051.83177436  .00000523  00000+0  15656-3 0  9995
2 20262  82.5962 184.0060 1229860 223.2850 126.4997 12.50470024658041
DELTA 1 R/B             
1 20323U 89089B   26052.13543213  .00000272  00000+0  75814-4 0  9990
2 20323  97.0716 262.2057 0069249 173.7815 186.4259 14.50648117893336
ARIANE 40 R/B           
1 20443U 90005H   26052.13559781  .00000216  00000+0  82255-4 0  9995
2 20443  98.3122 113.2873 0009058 251.6240 108.3964 14.39858506890420
