CCSDS_OMM_VERS = 2.0
CREATION_DATE  = 
ORIGINATOR     = 

OBJECT_NAME    = COSMOS 1933
OBJECT_ID      = 1988-020A
CENTER_NAME    = EARTH
REF_FRAME      = TEME
TIME_SYSTEM    = UTC
MEAN_ELEMENT_THEORY = SGP/SGP4

EPOCH          = 2026-02-21T02:40:52.049856
MEAN_MOTION    = 15.17825802
ECCENTRICITY   = .0002756
INCLINATION    = 82.5103
RA_OF_ASC_NODE = 267.3165
ARG_OF_PERICENTER = 256.3809
MEAN_ANOMALY   = 103.7118

EPHEMERIS_TYPE = 0
CLASSIFICATION_TYPE = U
NORAD_CAT_ID   = 18958
ELEMENT_SET_NO = 999
REV_AT_EPOCH   = 4771
BSTAR          = .14796E-3
MEAN_MOTION_DOT = .3022E-4
MEAN_MOTION_DDOT = 0

CCSDS_OMM_VERS = 2.0
CREATION_DATE  = 
ORIGINATOR     = 

OBJECT_NAME    = SL-3 R/B
OBJECT_ID      = 1988-032B
CENTER_NAME    = EARTH
REF_FRAME      = TEME
TIME_SYSTEM    = UTC
MEAN_ELEMENT_THEORY = SGP/SGP4

EPOCH          = 2026-02-21T03:22:43.870656
MEAN_MOTION    = 15.19685864
ECCENTRICITY   = .0024273
INCLINATION    = 97.5172
RA_OF_ASC_NODE = 35.4564
ARG_OF_PERICENTER = 293.7614
MEAN_ANOMALY   = 66.1075

EPHEMERIS_TYPE = 0
CLASSIFICATION_TYPE = U
NORAD_CAT_ID   = 19046
ELEMENT_SET_NO = 999
REV_AT_EPOCH   = 4959
BSTAR          = .24732E-3
MEAN_MOTION_DOT = .5248E-4
MEAN_MOTION_DDOT = 0

CCSDS_OMM_VERS = 2.0
CREATION_DATE  = 
ORIGINATOR     = 

OBJECT_NAME    = SL-16 R/B
OBJECT_ID      = 1988-039B
CENTER_NAME    = EARTH
REF_FRAME      = TEME
TIME_SYSTEM    = UTC
MEAN_ELEMENT_THEORY = SGP/SGP4

EPOCH          = 2026-02-21T03:21:11.795904
MEAN_MOTION    = 14.19613791
ECCENTRICITY   = .0021701
INCLINATION    = 71.0136
RA_OF_ASC_NODE = 103.5457
ARG_OF_PERICENTER = 359.1456
MEAN_ANOMALY   = 0.9628

EPHEMERIS_TYPE = 0
CLASSIFICATION_TYPE = U
NORAD_CAT_ID   = 19120
ELEMENT_SET_NO = 999
REV_AT_EPOCH   = 95603
BSTAR          = -.39027E-4
MEAN_MOTION_DOT = -.131E-5
MEAN_MOTION_DDOT = 0

CCSDS_OMM_VERS = 2.0
CREATION_DATE  = 
ORIGINATOR     = 

OBJECT_NAME    = COSMOS 1953
OBJECT_ID      = 1988-050A
CENTER_NAME    = EARTH
REF_FRAME      = TEME
TIME_SYSTEM    = UTC
MEAN_ELEMENT_THEORY = SGP/SGP4

EPOCH          = 2026-02-20T22:19:29.590176
MEAN_MOTION    = 15.28183578
ECCENTRICITY   = .001127
INCLINATION    = 82.5107
RA_OF_ASC_NODE = 175.0928
ARG_OF_PERICENTER = 178.4487
MEAN_ANOMALY   = 181.6790

EPHEMERIS_TYPE = 0
CLASSIFICATION_TYPE = U
NORAD_CAT_ID   = 19210
ELEMENT_SET_NO = 999
REV_AT_EPOCH   = 3522
BSTAR          = .31042E-3
MEAN_MOTION_DOT = .8573E-4
MEAN_MOTION_DDOT = 0

CCSDS_OMM_VERS = 2.0
CREATION_DATE  = 
ORIGINATOR     = 

OBJECT_NAME    = SL-8 R/B
OBJECT_ID      = 1988-053B
CENTER_NAME    = EARTH
REF_FRAME      = TEME
TIME_SYSTEM    = UTC
MEAN_ELEMENT_THEORY = SGP/SGP4

EPOCH          = 2026-02-20T16:51:55.431360
MEAN_MOTION    = 14.38904708
ECCENTRICITY   = .00209049
INCLINATION    = 74.0483
RA_OF_ASC_NODE = 143.7761
ARG_OF_PERICENTER = 325.7694
MEAN_ANOMALY   = 148.9451

EPHEMERIS_TYPE = 0
CLASSIFICATION_TYPE = U
NORAD_CAT_ID   = 19257
ELEMENT_SET_NO = 999
REV_AT_EPOCH   = 97415
BSTAR          = .77958137E-4
MEAN_MOTION_DOT = .214E-5
MEAN_MOTION_DDOT = 0

CCSDS_OMM_VERS = 2.0
CREATION_DATE  = 
ORIGINATOR     = 

OBJECT_NAME    = COSMOS 1975
OBJECT_ID      = 1988-093A
CENTER_NAME    = EARTH
REF_FRAME      = TEME
TIME_SYSTEM    = UTC
MEAN_ELEMENT_THEORY = SGP/SGP4

EPOCH          = 2026-02-21T03:44:13.646400
MEAN_MOTION    = 15.27777299
ECCENTRICITY   = .001077
INCLINATION    = 82.5213
RA_OF_ASC_NODE = 134.2764
ARG_OF_PERICENTER = 223.0818
MEAN_ANOMALY   = 136.9580

EPHEMERIS_TYPE = 0
CLASSIFICATION_TYPE = U
NORAD_CAT_ID   = 19573
ELEMENT_SET_NO = 999
REV_AT_EPOCH   = 1688
BSTAR          = .28013E-3
MEAN_MOTION_DOT = .7643E-4
MEAN_MOTION_DDOT = 0

CCSDS_OMM_VERS = 2.0
CREATION_DATE  = 
ORIGINATOR     = 

OBJECT_NAME    = SL-14 R/B
OBJECT_ID      = 1988-093B
CENTER_NAME    = EARTH
REF_FRAME      = TEME
TIME_SYSTEM    = UTC
MEAN_ELEMENT_THEORY = SGP/SGP4

EPOCH          = 2026-02-21T00:26:32.150688
MEAN_MOTION    = 14.85634871
ECCENTRICITY   = .0022329
INCLINATION    = 82.5280
RA_OF_ASC_NODE = 57.6973
ARG_OF_PERICENTER = 93.0641
MEAN_ANOMALY   = 286.6258

EPHEMERIS_TYPE = 0
CLASSIFICATION_TYPE = U
NORAD_CAT_ID   = 19574
ELEMENT_SET_NO = 999
REV_AT_EPOCH   = 99856
BSTAR          = .48805E-4
MEAN_MOTION_DOT = .449E-5
MEAN_MOTION_DDOT = 0

CCSDS_OMM_VERS = 2.0
CREATION_DATE  = 
ORIGINATOR     = 

OBJECT_NAME    = SL-16 R/B
OBJECT_ID      = 1988-102B
CENTER_NAME    = EARTH
REF_FRAME      = TEME
TIME_SYSTEM    = UTC
MEAN_ELEMENT_THEORY = SGP/SGP4

EPOCH          = 2026-02-20T19:28:12.512352
MEAN_MOTION    = 14.16151950
ECCENTRICITY   = .0013036
INCLINATION    = 70.9996
RA_OF_ASC_NODE = 187.0070
ARG_OF_PERICENTER = 27.7113
MEAN_ANOMALY   = 332.4702

EPHEMERIS_TYPE = 0
CLASSIFICATION_TYPE = U
NORAD_CAT_ID   = 19650
ELEMENT_SET_NO = 999
REV_AT_EPOCH   = 92450
BSTAR          = -.36371E-4
MEAN_MOTION_DOT = -.12E-5
MEAN_MOTION_DDOT = 0

CCSDS_OMM_VERS = 2.0
CREATION_DATE  = 
ORIGINATOR     = 

OBJECT_NAME    = INTERCOSMOS 24
OBJECT_ID      = 1989-080A
CENTER_NAME    = EARTH
REF_FRAME      = TEME
TIME_SYSTEM    = UTC
MEAN_ELEMENT_THEORY = SGP/SGP4

EPOCH          = 2026-02-21T02:56:35.988000
MEAN_MOTION    = 12.59531281
ECCENTRICITY   = .1187276
INCLINATION    = 82.6049
RA_OF_ASC_NODE = 115.1904
ARG_OF_PERICENTER = 331.3073
MEAN_ANOMALY   = 22.7346

EPHEMERIS_TYPE = 0
CLASSIFICATION_TYPE = U
NORAD_CAT_ID   = 20261
ELEMENT_SET_NO = 999
REV_AT_EPOCH   = 66471
BSTAR          = .1696E-3
MEAN_MOTION_DOT = .578E-5
MEAN_MOTION_DDOT = 0

CCSDS_OMM_VERS = 2.0
CREATION_DATE  = 
ORIGINATOR     = 

OBJECT_NAME    = SL-14 R/B
OBJECT_ID      = 1989-080C
CENTER_NAME    = EARTH
REF_FRAME      = TEME
TIME_SYSTEM    = UTC
MEAN_ELEMENT_THEORY = SGP/SGP4

EPOCH          = 2026-02-20T19:57:45.304704
MEAN_MOTION    = 12.50470024
ECCENTRICITY   = .122986
INCLINATION    = 82.5962
RA_OF_ASC_NODE = 184.0060
ARG_OF_PERICENTER = 223.2850
MEAN_ANOMALY   = 126.4997

EPHEMERIS_TYPE = 0
CLASSIFICATION_TYPE = U
NORAD_CAT_ID   = 20262
ELEMENT_SET_NO = 999
REV_AT_EPOCH   = 65804
BSTAR          = .15656E-3
MEAN_MOTION_DOT = .523E-5
MEAN_MOTION_DDOT = 0

CCSDS_OMM_VERS = 2.0
CREATION_DATE  = 
ORIGINATOR     = 

OBJECT_NAME    = DELTA 1 R/B
OBJECT_ID      = 1989-089B
CENTER_NAME    = EARTH
REF_FRAME      = TEME
TIME_SYSTEM    = UTC
MEAN_ELEMENT_THEORY = SGP/SGP4

EPOCH          = 2026-02-21T03:15:01.336032
MEAN_MOTION    = 14.50648117
ECCENTRICITY   = .0069249
INCLINATION    = 97.0716
RA_OF_ASC_NODE = 262.2057
ARG_OF_PERICENTER = 173.7815
MEAN_ANOMALY   = 186.4259

EPHEMERIS_TYPE = 0
CLASSIFICATION_TYPE = U
NORAD_CAT_ID   = 20323
ELEMENT_SET_NO = 999
REV_AT_EPOCH   = 89333
BSTAR          = .75814E-4
MEAN_MOTION_DOT = .272E-5
MEAN_MOTION_DDOT = 0

CCSDS_OMM_VERS = 2.0
CREATION_DATE  = 
ORIGINATOR     = 

OBJECT_NAME    = ARIANE 40 R/B
OBJECT_ID      = 1990-005H
CENTER_NAME    = EARTH
REF_FRAME      = TEME
TIME_SYSTEM    = UTC
MEAN_ELEMENT_THEORY = SGP/SGP4

EPOCH          = 2026-02-21T03:15:15.650784
MEAN_MOTION    = 14.39858506
ECCENTRICITY   = .0009058
INCLINATION    = 98.3122
RA_OF_ASC_NODE = 113.2873
ARG_OF_PERICENTER = 251.6240
MEAN_ANOMALY   = 108.3964

EPHEMERIS_TYPE = 0
CLASSIFICATION_TYPE = U
NORAD_CAT_ID   = 20443
ELEMENT_SET_NO = 999
REV_AT_EPOCH   = 89042
BSTAR          = .82255E-4
MEAN_MOTION_DOT = .216E-5
MEAN_MOTION_DDOT = 0

